NORAD_CAT_ID,OBJECT_NAME,OBJECT_TYPE,EPOCH,MEAN_MOTION,ECCENTRICITY,INCLINATION,RA_OF_ASC_NODE,ARG_OF_PERICENTER,MEAN_ANOMALY,BSTAR,MEAN_MOTION_DOT,MEAN_MOTION_DDOT,TLE_LINE0,TLE_LINE1,TLE_LINE2,SEMIMAJOR_AXIS,PERIOD,APOGEE,PERIGEE,DECAYED
49744.0,STARLINK-3231,PAYLOAD,2023-10-03 22:40:50,15.0884114,0.0001227,53.2152,174.2565,94.8672,265.246,0.00016249,2.299e-05,0.0,0 STARLINK-3231,1 49744U 21115W   23276.94503420  .00002299  00000-0  16249-3 0  9992,2 49744  53.2152 174.2565 0001227  94.8672 265.2460 15.08841140101511,6917.877,95.437,540.591,538.893,0.0
49744.0,STARLINK-3231,PAYLOAD,2023-10-04 00:16:13,15.08844916,0.0001282,53.2151,173.9589,97.0172,263.0966,0.00017591,2.513e-05,0.0,0 STARLINK-3231,1 49744U 21115W   23277.01127271  .00002513  00000-0  17591-3 0  9997,2 49744  53.2151 173.9589 0001282  97.0172 263.0966 15.08844916102638,6917.865,95.437,540.617,538.843,0.0
49744.0,STARLINK-3231,PAYLOAD,2023-10-04 22:31:37,15.08856231,0.0001357,53.2161,169.7958,88.5443,271.5704,0.00046496,7.123e-05,0.0,0 STARLINK-3231,1 49744U 21115W   23277.93862917  .00007123  00000-0  46496-3 0  9999,2 49744  53.2161 169.7958 0001357  88.5443 271.5704 15.08856231101660,6917.831,95.437,540.635,538.757,0.0
49744.0,STARLINK-3231,PAYLOAD,2023-10-05 09:39:19,15.0886191,0.0001373,53.2157,167.7161,79.3511,280.7636,0.00060257,9.321e-05,0.0,0 STARLINK-3231,1 49744U 21115W   23278.40230524  .00009321  00000-0  60257-3 0  9998,2 49744  53.2157 167.7161 0001373  79.3511 280.7636 15.08861910102848,6917.813,95.436,540.628,538.729,0.0
49744.0,STARLINK-3231,PAYLOAD,2023-10-05 20:47:01,15.0883272,0.0001244,53.2152,165.6347,87.383,272.7304,-0.00031437,-5.287e-05,0.0,0 STARLINK-3231,1 49744U 21115W   23278.86599002 -.00005287  00000-0 -31437-3 0  9994,2 49744  53.2152 165.6347 0001244  87.3830 272.7304 15.08832720102914,6917.903,95.438,540.628,538.907,0.0
49744.0,STARLINK-3231,PAYLOAD,2023-10-05 22:22:24,15.08836015,0.0001355,53.2146,165.3373,86.6399,273.4748,-0.00015007,-2.675e-05,0.0,0 STARLINK-3231,1 49744U 21115W   23278.93222988 -.00002675  00000-0 -15007-3 0  9991,2 49744  53.2146 165.3373 0001355  86.6399 273.4748 15.08836015101817,6917.893,95.438,540.695,538.82,0.0
49744.0,STARLINK-3231,PAYLOAD,2023-10-06 09:30:06,15.08834523,0.0001397,53.215,163.2541,95.6027,264.5124,0.0004887,7.497e-05,0.0,0 STARLINK-3231,1 49744U 21115W   23279.39591429  .00007497  00000-0  48870-3 0  9990,2 49744  53.2150 163.2541 0001397  95.6027 264.5124 15.08834523101888,6917.897,95.438,540.729,538.796,0.0
49744.0,STARLINK-3231,PAYLOAD,2023-10-06 22:13:12,15.0882586,0.0001518,53.215,160.8759,97.2727,262.8437,0.0004735,7.253e-05,0.0,0 STARLINK-3231,1 49744U 21115W   23279.92584062  .00007253  00000-0  47350-3 0  9996,2 49744  53.2150 160.8759 0001518  97.2727 262.8437 15.08825860101963,6917.924,95.438,540.839,538.738,0.0
49744.0,STARLINK-3231,PAYLOAD,2023-10-07 01:23:58,15.08841813,0.0001388,53.2149,160.2806,93.8633,266.2518,0.00058452,9.027e-05,0.0,0 STARLINK-3231,1 49744U 21115W   23280.05831827  .00009027  00000-0  58452-3 0  9992,2 49744  53.2149 160.2806 0001388  93.8633 266.2518 15.08841813103091,6917.875,95.437,540.7,538.78,0.0
49744.0,STARLINK-3231,PAYLOAD,2023-10-07 09:20:54,15.08834973,0.0001551,53.2151,158.7936,87.153,272.9639,0.00045891,7.022e-05,0.0,0 STARLINK-3231,1 49744U 21115W   23280.38952240  .00007022  00000-0  45891-3 0  9997,2 49744  53.2151 158.7936 0001551  87.1530 272.9639 15.08834973103147,6917.896,95.438,540.834,538.688,0.0
49744.0,STARLINK-3231,PAYLOAD,2023-10-07 22:03:59,15.08843378,0.0001504,53.2155,156.4135,90.7315,269.385,0.0004833,7.413e-05,0.0,0 STARLINK-3231,1 49744U 21115W   23280.91944177  .00007413  00000-0  48330-3 0  9991,2 49744  53.2155 156.4135 0001504  90.7315 269.3850 15.08843378102116,6917.87,95.437,540.776,538.695,0.0
49744.0,STARLINK-3231,PAYLOAD,2023-10-08 09:11:41,15.08844374,0.0001706,53.2153,154.3328,87.2669,272.8518,0.00033503,5.049e-05,0.0,0 STARLINK-3231,1 49744U 21115W   23281.38312158  .00005049  00000-0  33503-3 0  9990,2 49744  53.2153 154.3328 0001706  87.2669 272.8518 15.08844374102186,6917.867,95.437,540.912,538.552,0.0
49744.0,STARLINK-3231,PAYLOAD,2023-10-08 21:54:46,15.08851565,0.0001423,53.2161,151.9532,91.9342,268.1813,0.00045064,6.893e-05,0.0,0 STARLINK-3231,1 49744U 21115W   23281.91303773  .00006893  00000-0  45064-3 0  9995,2 49744  53.2161 151.9532 0001423  91.9342 268.1813 15.08851565102266,6917.845,95.437,540.694,538.726,0.0
49744.0,STARLINK-3231,PAYLOAD,2023-10-09 01:05:32,15.08857875,0.000163,53.216,151.3572,94.9956,265.1222,0.00059513,9.201e-05,0.0,0 STARLINK-3231,1 49744U 21115W   23282.04551569  .00009201  00000-0  59513-3 0  9998,2 49744  53.2160 151.3572 0001630  94.9956 265.1222 15.08857875103393,6917.826,95.436,540.818,538.563,0.0
49744.0,STARLINK-3231,PAYLOAD,2023-10-09 09:02:28,15.0884322,0.0001688,53.2154,149.8727,98.8462,261.2722,0.00011087,1.477e-05,0.0,0 STARLINK-3231,1 49744U 21115W   23282.37671928  .00001477  00000-0  11087-3 0  9997,2 49744  53.2154 149.8727 0001688  98.8462 261.2722 15.08843220103445,6917.871,95.437,540.903,538.568,0.0
49744.0,STARLINK-3231,PAYLOAD,2023-10-09 20:10:10,15.08845972,0.0001728,53.2167,147.7888,113.7423,246.375,0.00030246,4.53e-05,0.0,0 STARLINK-3231,1 49744U 21115W   23282.84039847  .00004530  00000-0  30246-3 0  9998,2 49744  53.2167 147.7888 0001728 113.7423 246.3750 15.08845972102409,6917.862,95.437,540.923,538.532,0.0
49744.0,STARLINK-3231,PAYLOAD,2023-10-09 23:20:56,15.08847937,0.0001765,53.2167,147.1955,112.1985,247.9195,0.00045209,6.916e-05,0.0,0 STARLINK-3231,1 49744U 21115W   23282.97287830  .00006916  00000-0  45209-3 0  9994,2 49744  53.2167 147.1955 0001765 112.1985 247.9195 15.08847937102420,6917.856,95.437,540.942,538.5,0.0
49744.0,STARLINK-3231,PAYLOAD,2023-10-10 21:36:20,15.08847156,0.0001452,53.2152,143.0305,91.019,269.0969,0.00031228,4.686e-05,0.0,0 STARLINK-3231,1 49744U 21115W   23283.90023969  .00004686  00000-0  31228-3 0  9997,2 49744  53.2152 143.0305 0001452  91.0190 269.0969 15.08847156103679,6917.859,95.437,540.728,538.719,0.0
49744.0,STARLINK-3231,PAYLOAD,2023-10-11 00:47:06,15.08848517,0.0001461,53.2151,142.4369,92.9406,267.1753,0.00034204,5.161e-05,0.0,0 STARLINK-3231,1 49744U 21115W   23284.03271913  .00005161  00000-0  34204-3 0  9992,2 49744  53.2151 142.4369 0001461  92.9406 267.1753 15.08848517102582,6917.854,95.437,540.73,538.709,0.0
49744.0,STARLINK-3231,PAYLOAD,2023-10-11 21:27:07,15.08844106,0.0001361,53.2153,138.574,95.4151,264.6997,0.00019843,2.872e-05,0.0,0 STARLINK-3231,1 49744U 21115W   23284.89384167  .00002872  00000-0  19843-3 0  9990,2 49744  53.2153 138.5740 0001361  95.4151 264.6997 15.08844106103827,6917.868,95.437,540.674,538.791,0.0
49744.0,STARLINK-3231,PAYLOAD,2023-10-12 13:20:59,15.08839508,0.0001415,53.2157,135.5998,92.0423,268.0731,4.9909e-05,5.06e-06,0.0,0 STARLINK-3231,1 49744U 21115W   23285.55624321  .00000506  00000-0  49909-4 0  9992,2 49744  53.2157 135.5998 0001415  92.0423 268.0731 15.08839508102810,6917.882,95.438,540.726,538.768,0.0
49744.0,STARLINK-3231,PAYLOAD,2023-10-12 19:42:31,15.08842901,0.0001396,53.2159,134.4105,98.6303,261.4847,0.00014059,1.95e-05,0.0,0 STARLINK-3231,1 49744U 21115W   23285.82120229  .00001950  00000-0  14059-3 0  9991,2 49744  53.2159 134.4105 0001396  98.6303 261.4847 15.08842901103960,6917.872,95.437,540.702,538.771,0.0
49744.0,STARLINK-3231,PAYLOAD,2023-10-13 06:50:13,15.08842382,0.0001389,53.2158,132.3287,94.8792,265.2359,8.5911e-05,1.08e-05,0.0,0 STARLINK-3231,1 49744U 21115W   23286.28488221  .00001080  00000-0  85911-4 0  9991,2 49744  53.2158 132.3287 0001389  94.8792 265.2359 15.08842382102927,6917.873,95.437,540.699,538.777,0.0
49744.0,STARLINK-3231,PAYLOAD,2023-10-13 21:08:41,15.08848988,0.0001254,53.2147,129.6538,100.1132,260.0002,0.00023591,3.47e-05,0.0,0 STARLINK-3231,1 49744U 21115W   23286.88103963  .00003470  00000-0  23591-3 0  9994,2 49744  53.2147 129.6538 0001254 100.1132 260.0002 15.08848988104123,6917.853,95.437,540.585,538.85,0.0
49744.0,STARLINK-3231,PAYLOAD,2023-10-14 06:41:00,15.08842537,0.0001478,53.2152,127.8675,94.322,265.7941,0.00010352,1.36e-05,0.0,0 STARLINK-3231,1 49744U 21115W   23287.27848194  .00001360  00000-0  10352-3 0  9997,2 49744  53.2152 127.8675 0001478  94.3220 265.7941 15.08842537104185,6917.873,95.437,540.76,538.715,0.0
49744.0,STARLINK-3231,PAYLOAD,2023-10-14 13:02:33,15.08843048,0.0001331,53.2141,126.6804,89.4621,270.6524,0.0001596,2.253e-05,0.0,0 STARLINK-3231,1 49744U 21115W   23287.54344206  .00002253  00000-0  15960-3 0  9994,2 49744  53.2141 126.6804 0001331  89.4621 270.6524 15.08843048103114,6917.871,95.437,540.657,538.815,0.0
49744.0,STARLINK-3231,PAYLOAD,2023-10-14 20:59:29,15.08842605,0.0001276,53.2146,125.1916,88.1687,271.9452,0.00011988,1.621e-05,0.0,0 STARLINK-3231,1 49744U 21115W   23287.87464218  .00001621  00000-0  11988-3 0  9990,2 49744  53.2146 125.1916 0001276  88.1687 271.9452 15.08842605103160,6917.872,95.437,540.62,538.855,0.0
49744.0,STARLINK-3231,PAYLOAD,2023-10-15 12:53:20,15.0883592,0.0001293,53.215,122.2171,85.3399,274.7741,3.9527e-05,3.41e-06,0.0,0 STARLINK-3231,1 49744U 21115W   23288.53704747  .00000341  00000-0  39527-4 0  9996,2 49744  53.2150 122.2171 0001293  85.3399 274.7741 15.08835920104372,6917.893,95.438,540.652,538.863,0.0
49744.0,STARLINK-3231,PAYLOAD,2023-10-15 19:14:53,15.08836387,0.0001302,53.215,121.0273,84.8971,275.217,4.2065e-05,3.82e-06,0.0,0 STARLINK-3231,1 49744U 21115W   23288.80200796  .00000382  00000-0  42065-4 0  9997,2 49744  53.2150 121.0273 0001302  84.8971 275.2170 15.08836387103305,6917.891,95.438,540.657,538.856,0.0
49744.0,STARLINK-3231,PAYLOAD,2023-10-16 06:22:34,15.08846437,0.0001163,53.216,118.9457,96.8382,263.2742,3.7279e-05,3.06e-06,0.0,0 STARLINK-3231,1 49744U 21115W   23289.26568265  .00000306  00000-0  37279-4 0  9993,2 49744  53.2160 118.9457 0001163  96.8382 263.2742 15.08846437104488,6917.861,95.437,540.53,538.921,0.0
